[ {"name": "STARLINK-30980", "line1": "1 58476U 23186D   26124.33359365  .00000732  00000+0  36134-4 0  9994", "line2": "2 58476  43.0030 113.0264 0001210 267.7027  92.3686 15.27568691134365"}, {"name": "STARLINK-30965", "line1": "1 58477U 23186E   26124.95840476  .00000913  00000+0  42693-4 0  9999", "line2": "2 58477  43.0049  94.4127 0001378 262.4183  97.6512 15.27576208134635"}, {"name": "STARLINK-30990", "line1": "1 58478U 23186F   26124.65024183  .00000810  00000+0  38971-4 0  9996", "line2": "2 58478  43.0014 111.1074 0001310 268.4108  91.6593 15.27576860134452"}, {"name": "STARLINK-30984", "line1": "1 58480U 23186H   26125.00835490 -.00001385  00000+0 -40817-4 0  9992", "line2": "2 58480  43.0007 105.2183 0001457 259.5635 100.5053 15.27579679134519"}, {"name": "STARLINK-30956", "line1": "1 58481U 23186J   26124.93156153  .00000324  00000+0  21304-4 0  9996", "line2": "2 58481  43.0030  83.6541 0000841 275.2860  84.7895 15.27574581134754"}, {"name": "STARLINK-30997", "line1": "1 58482U 23186K   26124.97403700  .00021953  00000+0  82516-3 0  9996", "line2": "2 58482  42.9987 105.7958 0000811 272.8407  87.2352 15.26759669134509"}, {"name": "STARLINK-30994", "line1": "1 58483U 23186L   26124.84967933  .00068509  00000+0  23958-2 0  9998", "line2": "2 58483  43.0000 302.9513 0003026 275.1028  84.9478 15.28656107136399"}, {"name": "STARLINK-30991", "line1": "1 58484U 23186M   26125.00707326  .00000904  00000+0  42364-4 0  9995", "line2": "2 58484  43.0012 105.2066 0001175 229.7392 130.3357 15.27578917134494"}, {"name": "STARLINK-30979", "line1": "1 58485U 23186N   26124.39689626  .00001756  00000+0  73322-4 0  9993", "line2": "2 58485  43.0022 109.2335 0000966 266.9971  93.0770 15.27579300134404"}, {"name": "STARLINK-31005", "line1": "1 58486U 23186P   26124.97895207  .00002852  00000+0  11311-3 0  9999", "line2": "2 58486  43.0007 105.8620 0001407 264.5928  95.4763 15.27581193134494"}, {"name": "STARLINK-30987", "line1": "1 58487U 23186Q   26124.98280522 -.00002597  00000+0 -84913-4 0  9996", "line2": "2 58487  43.0021 105.8859 0001463 280.2148  79.8539 15.27562091134499"}, {"name": "STARLINK-31000", "line1": "1 58488U 23186R   26124.97124672 -.00000294  00000+0 -11744-5 0  9994", "line2": "2 58488  43.0029 105.8077 0000937 269.8072  90.2673 15.27571198134498"}, {"name": "STARLINK-30993", "line1": "1 58489U 23186S   26124.64816568  .00000627  00000+0  32305-4 0  9994", "line2": "2 58489  43.0000 107.6779 0001139 268.1677  91.9044 15.27575405134445"}, {"name": "STARLINK-30978", "line1": "1 58490U 23186T   26124.96482228  .00004274  00000+0  16479-3 0  9998", "line2": "2 58490  43.0016 105.7597 0001417 268.9929  91.0760 15.27568634134495"}, {"name": "STARLINK-30953", "line1": "1 58491U 23186U   26124.94460562 -.00006930  00000+0 -24234-3 0  9995", "line2": "2 58491  43.0008 309.8035 0001202 288.8895  71.1826 15.27609023136498"}, {"name": "STARLINK-30986", "line1": "1 58492U 23186V   26124.96098984  .00000014  00000+0  10050-4 0  9990", "line2": "2 58492  43.0012 105.7282 0001188 266.6536  93.4179 15.27552722134499"}, {"name": "STARLINK-30985", "line1": "1 58493U 23186W   26124.95325542  .00000553  00000+0  29618-4 0  9991", "line2": "2 58493  43.0020 105.6705 0001365 268.2708  91.7987 15.27574473134499"}, {"name": "STARLINK-30981", "line1": "1 58494U 23186X   26125.01478260  .00001588  00000+0  67216-4 0  9991", "line2": "2 58494  43.0026 105.2701 0001223 259.1361 100.9353 15.27573175134505"}, {"name": "STARLINK-31002", "line1": "1 58495U 23186Y   26124.98923049  .00000803  00000+0  38712-4 0  9995", "line2": "2 58495  43.0052 105.9315 0001241 269.5097  90.5613 15.27576753134669"}, {"name": "STARLINK-31026", "line1": "1 58508U 23191A   26125.14732266  .00000518  00000+0  28333-4 0  9995", "line2": "2 58508  42.9994 151.5815 0001599 264.0611  96.0059 15.27584950134020"}, {"name": "STARLINK-31020", "line1": "1 58509U 23191B   26124.48189785  .00001832  00000+0  76095-4 0  9992", "line2": "2 58509  43.0045 155.1885 0001987 254.9066 105.1566 15.27570295133920"}, {"name": "STARLINK-30989", "line1": "1 58510U 23191C   26125.08806362 -.00000180  00000+0  29951-5 0  9994", "line2": "2 58510  43.0019 145.1930 0001116 278.8609  81.2117 15.27574391134125"}, {"name": "STARLINK-30968", "line1": "1 58511U 23191D   26125.09191825  .00002507  00000+0  10061-3 0  9991", "line2": "2 58511  43.0029 145.2189 0001081 276.6567  83.4162 15.27577066134096"}, {"name": "STARLINK-30982", "line1": "1 58512U 23191E   26125.09576801 -.00003319  00000+0 -11109-3 0  9991", "line2": "2 58512  43.0030 145.2449 0000924 284.7698  75.3052 15.27591622134090"}, {"name": "STARLINK-30998", "line1": "1 58513U 23191F   26125.09833604 -.00006183  00000+0 -21520-3 0  9999", "line2": "2 58513  43.0034 145.2701 0000295 327.2691  32.8143 15.27605285134127"}, {"name": "STARLINK-30983", "line1": "1 58514U 23191G   26125.07007167  .00001487  00000+0  63536-4 0  9999", "line2": "2 58514  42.9995 145.0538 0001268 272.5551  87.5156 15.27578365133742"}, {"name": "STARLINK-31017", "line1": "1 58515U 23191H   26125.08249134  .00000530  00000+0  28804-4 0  9990", "line2": "2 58515  43.0005 272.6844 0001474 269.6956  90.3727 15.27577266136804"}, {"name": "STARLINK-31028", "line1": "1 58516U 23191J   26125.04179969 -.00003694  00000+0 -12472-3 0  9994", "line2": "2 58516  43.0051 144.8366 0001058 275.9804  84.0927 15.27595295134098"}, {"name": "STARLINK-31011", "line1": "1 58517U 23191K   26125.10333707  .00001287  00000+0  56291-4 0  9996", "line2": "2 58517  43.0036 144.4492 0001045 290.0355  70.0384 15.27575466134105"}, {"name": "STARLINK-31021", "line1": "1 58518U 23191L   26125.08421718  .00000681  00000+0  34277-4 0  9991", "line2": "2 58518  43.0016 145.1389 0001310 277.9506  82.1197 15.27569608134099"}, {"name": "STARLINK-31010", "line1": "1 58519U 23191M   26124.36108741  .00001076  00000+0  48632-4 0  9999", "line2": "2 58519  43.0007 149.1374 0001365 278.4220  81.6477 15.27576384133988"}, {"name": "STARLINK-31003", "line1": "1 58520U 23191N   26125.10205264  .00000415  00000+0  24613-4 0  9991", "line2": "2 58520  43.0051 144.4358 0001203 273.8214  86.2500 15.27575183134101"}, {"name": "STARLINK-31015", "line1": "1 58521U 23191P   26125.10590514  .00016808  00000+0  61870-3 0  9995", "line2": "2 58521  43.0003 144.4648 0000844 251.7973 108.2786 15.27591251134079"}, {"name": "STARLINK-30932", "line1": "1 58523U 23191R   26124.39436857  .00003731  00000+0  14512-3 0  9998", "line2": "2 58523  43.0040 148.5817 0001427 263.8552  96.2137 15.27565916133940"}, {"name": "STARLINK-30992", "line1": "1 58524U 23191S   26125.11747345  .00004563  00000+0  17526-3 0  9999", "line2": "2 58524  43.0022 144.5497 0001216 276.5548  83.5165 15.27576775134107"}, {"name": "STARLINK-30948", "line1": "1 58525U 23191T   26124.40078929  .00002748  00000+0  10937-3 0  9998", "line2": "2 58525  43.0012 148.6314 0001482 274.2541  85.8141 15.27578389133991"}, {"name": "STARLINK-31013", "line1": "1 58526U 23191U   26125.10952311  .00020003  00000+0  12799-2 0  9994", "line2": "2 58526  42.9982 156.4137 0004176  54.8073 305.3162 15.08238261133962"}, {"name": "STARLINK-31001", "line1": "1 58527U 23191V   26125.07391016  .00001420  00000+0  61089-4 0  9990", "line2": "2 58527  42.9996 144.9867 0000980 269.8368  90.2371 15.27597452134092"}, {"name": "STARLINK-31004", "line1": "1 58528U 23191W   26124.40464341  .00004533  00000+0  17411-3 0  9996", "line2": "2 58528  42.9995 148.6555 0001458 259.2527 100.8161 15.27585558133995"}, {"name": "STARLINK-30988", "line1": "1 58529U 23191X   26125.06238520 -.00002056  00000+0 -65246-4 0  9998", "line2": "2 58529  43.0005 144.9907 0001529 279.9135  80.1544 15.27559676134092"}, {"name": "STARLINK-31009", "line1": "1 58530U 23191Y   26125.06621392  .00001346  00000+0  58440-4 0  9990", "line2": "2 58530  42.9995 145.0188 0001307 271.1217  88.9485 15.27578997134112"}, {"name": "STARLINK-31012", "line1": "1 58531U 23192A   26125.09996164 -.00019047  00000+0 -63080-3 0  9991", "line2": "2 58531  53.1599 160.6086 0001329  42.1208 317.9895 15.30291336134626"}, {"name": "STARLINK-31035", "line1": "1 58532U 23192B   26124.49046455 -.00006697  00000+0 -21400-3 0  9991", "line2": "2 58532  53.1600 150.3957 0000883  74.8944 285.2154 15.30226451134717"}, {"name": "STARLINK-31036", "line1": "1 58533U 23192C   26124.38938521  .00000412  00000+0  23342-4 0  9999", "line2": "2 58533  53.1618 164.0242 0001143  76.7781 283.3349 15.34377980134517"}, {"name": "STARLINK-30936", "line1": "1 58534U 23192D   26124.77877494  .00000145  00000+0  17028-4 0  9991", "line2": "2 58534  53.1591 152.2436 0000973  98.2039 261.9072 15.30185438134715"}, {"name": "STARLINK-31032", "line1": "1 58535U 23192E   26125.07641325  .00000477  00000+0  25242-4 0  9993", "line2": "2 58535  53.1601 160.4590 0001088  89.8556 270.2571 15.34390040134626"}, {"name": "STARLINK-31037", "line1": "1 58536U 23192F   26125.10735950  .00000029  00000+0  13103-4 0  9992", "line2": "2 58536  53.1595 160.6723 0001083  77.0177 283.0945 15.30195164134625"}, {"name": "STARLINK-31041", "line1": "1 58537U 23192G   26125.17161611  .00000024  00000+0  12921-4 0  9999", "line2": "2 58537  53.1593 160.3409 0001148  73.0942 287.0184 15.30196625134633"}, {"name": "STARLINK-31014", "line1": "1 58538U 23192H   26125.16668980  .00003766  00000+0  12257-3 0  9997", "line2": "2 58538  53.1597 160.3812 0001667  82.5475 242.0682 15.34393768  5900"}, {"name": "STARLINK-31055", "line1": "1 58539U 23192J   26125.09535473 -.00001520  00000+0 -33884-4 0  9998", "line2": "2 58539  53.1617 160.5774 0001246  82.5097 277.6047 15.34387231134625"}, {"name": "STARLINK-31019", "line1": "1 58540U 23192K   26125.11052464  .00000408  00000+0  25910-4 0  9990", "line2": "2 58540  53.1607 160.6724 0001185  80.0794 280.0340 15.30195161134620"}, {"name": "STARLINK-31045", "line1": "1 58541U 23192L   26124.72933072  .00002414  00000+0  93570-4 0  9996", "line2": "2 58541  53.1586 239.2812 0001325 103.1629 256.9519 15.30212960133477"}]